{
  "type": "FeatureCollection",
  "features": [
    {
      "type": "Feature",
      "properties": {
        "norad_id": 30828,
        "name": "FENGYUN 1C DEB",
        "group": "fengyun-1c-debris",
        "lat": -52.169736569350235,
        "lon": 119.78379640336777,
        "alt_km": 789.7224131122957,
        "timestamp": "2025-12-27T07:26:25.500720+00:00",
        "meta_object_name": "FENGYUN 1C DEB",
        "meta_object_id": "1999-025AVN",
        "meta_epoch": "2025-12-26T19:22:20.853120",
        "meta_mean_motion": 14.77439493,
        "meta_eccentricity": 0.02081423,
        "meta_inclination": 98.3756,
        "meta_ra_of_asc_node": 108.3242,
        "meta_arg_of_pericenter": 133.9264,
        "meta_mean_anomaly": 20.0959,
        "meta_ephemeris_type": 0,
        "meta_classification_type": "U",
        "meta_norad_cat_id": 30828,
        "meta_element_set_no": 999,
        "meta_rev_at_epoch": 98864,
        "meta_bstar": 0.0017022841,
        "meta_mean_motion_dot": 0.00017375,
        "meta_mean_motion_ddot": 0,
        "tle_line1": "1 30828U 99025AVN 25360.80718580  .00017375  00000+0  17023-2 0  9996",
        "tle_line2": "2 30828  98.3756 108.3242 0208142 133.9264  20.0959 14.77439493988647"
      },
      "geometry": {
        "type": "Point",
        "coordinates": [
          119.78379640336777,
          -52.169736569350235
        ]
      }
    },
    {
      "type": "Feature",
      "properties": {
        "norad_id": 30829,
        "name": "FENGYUN 1C DEB",
        "group": "fengyun-1c-debris",
        "lat": -1.0539664991302615,
        "lon": -6.266638502793316,
        "alt_km": 856.6700227572946,
        "timestamp": "2025-12-27T07:26:25.500730+00:00",
        "meta_object_name": "FENGYUN 1C DEB",
        "meta_object_id": "1999-025AVP",
        "meta_epoch": "2025-12-26T22:55:19.504704",
        "meta_mean_motion": 14.08675637,
        "meta_eccentricity": 0.00347957,
        "meta_inclination": 98.7782,
        "meta_ra_of_asc_node": 353.225,
        "meta_arg_of_pericenter": 293.9132,
        "meta_mean_anomaly": 65.8394,
        "meta_ephemeris_type": 0,
        "meta_classification_type": "U",
        "meta_norad_cat_id": 30829,
        "meta_element_set_no": 999,
        "meta_rev_at_epoch": 96633,
        "meta_bstar": 0.00042322736,
        "meta_mean_motion_dot": 6.89e-06,
        "meta_mean_motion_ddot": 0,
        "tle_line1": "1 30829U 99025AVP 25360.95508686  .00000689  00000+0  42323-3 0  9999",
        "tle_line2": "2 30829  98.7782 353.2250 0034795 293.9132  65.8394 14.08675637966331"
      },
      "geometry": {
        "type": "Point",
        "coordinates": [
          -6.266638502793316,
          -1.0539664991302615
        ]
      }
    },
    {
      "type": "Feature",
      "properties": {
        "norad_id": 30830,
        "name": "FENGYUN 1C DEB",
        "group": "fengyun-1c-debris",
        "lat": 37.953064419646545,
        "lon": -17.5542337239578,
        "alt_km": 856.1338050178047,
        "timestamp": "2025-12-27T07:26:25.500740+00:00",
        "meta_object_name": "FENGYUN 1C DEB",
        "meta_object_id": "1999-025AVQ",
        "meta_epoch": "2025-12-26T22:53:48.907392",
        "meta_mean_motion": 14.12242909,
        "meta_eccentricity": 0.00313714,
        "meta_inclination": 98.7304,
        "meta_ra_of_asc_node": 348.9826,
        "meta_arg_of_pericenter": 148.4546,
        "meta_mean_anomaly": 241.6385,
        "meta_ephemeris_type": 0,
        "meta_classification_type": "U",
        "meta_norad_cat_id": 30830,
        "meta_element_set_no": 999,
        "meta_rev_at_epoch": 96800,
        "meta_bstar": 0.00027712015,
        "meta_mean_motion_dot": 4.69e-06,
        "meta_mean_motion_ddot": 0,
        "tle_line1": "1 30830U 99025AVQ 25360.95403828  .00000469  00000+0  27712-3 0  9994",
        "tle_line2": "2 30830  98.7304 348.9826 0031371 148.4546 241.6385 14.12242909968000"
      },
      "geometry": {
        "type": "Point",
        "coordinates": [
          -17.5542337239578,
          37.953064419646545
        ]
      }
    },
    {
      "type": "Feature",
      "properties": {
        "norad_id": 30831,
        "name": "FENGYUN 1C DEB",
        "group": "fengyun-1c-debris",
        "lat": 28.394305126457287,
        "lon": -19.76429277528079,
        "alt_km": 823.4756711987002,
        "timestamp": "2025-12-27T07:26:25.500750+00:00",
        "meta_object_name": "FENGYUN 1C DEB",
        "meta_object_id": "1999-025AVR",
        "meta_epoch": "2025-12-26T05:34:05.943072",
        "meta_mean_motion": 14.31116177,
        "meta_eccentricity": 0.0055085,
        "meta_inclination": 99.3287,
        "meta_ra_of_asc_node": 153.9814,
        "meta_arg_of_pericenter": 355.2233,
        "meta_mean_anomaly": 4.8415,
        "meta_ephemeris_type": 0,
        "meta_classification_type": "U",
        "meta_norad_cat_id": 30831,
        "meta_element_set_no": 999,
        "meta_rev_at_epoch": 65443,
        "meta_bstar": 0.00042706,
        "meta_mean_motion_dot": 1.095e-05,
        "meta_mean_motion_ddot": 0,
        "tle_line1": "1 30831U 99025AVR 25360.23201323  .00001095  00000+0  42706-3 0  9998",
        "tle_line2": "2 30831  99.3287 153.9814 0055085 355.2233   4.8415 14.31116177654438"
      },
      "geometry": {
        "type": "Point",
        "coordinates": [
          -19.76429277528079,
          28.394305126457287
        ]
      }
    },
    {
      "type": "Feature",
      "properties": {
        "norad_id": 30833,
        "name": "FENGYUN 1C DEB",
        "group": "fengyun-1c-debris",
        "lat": -54.398775656786995,
        "lon": 163.2363255310687,
        "alt_km": 832.2619293301623,
        "timestamp": "2025-12-27T07:26:25.500773+00:00",
        "meta_object_name": "FENGYUN 1C DEB",
        "meta_object_id": "1999-025AVT",
        "meta_epoch": "2025-12-26T16:33:18.415872",
        "meta_mean_motion": 14.2679545,
        "meta_eccentricity": 0.00330981,
        "meta_inclination": 99.8455,
        "meta_ra_of_asc_node": 148.5021,
        "meta_arg_of_pericenter": 142.0625,
        "meta_mean_anomaly": 218.2892,
        "meta_ephemeris_type": 0,
        "meta_classification_type": "U",
        "meta_norad_cat_id": 30833,
        "meta_element_set_no": 999,
        "meta_rev_at_epoch": 64610,
        "meta_bstar": 0.00059714101,
        "meta_mean_motion_dot": 1.402e-05,
        "meta_mean_motion_ddot": 0,
        "tle_line1": "1 30833U 99025AVT 25360.68979648  .00001402  00000+0  59714-3 0  9990",
        "tle_line2": "2 30833  99.8455 148.5021 0033098 142.0625 218.2892 14.26795450646105"
      },
      "geometry": {
        "type": "Point",
        "coordinates": [
          163.2363255310687,
          -54.398775656786995
        ]
      }
    },
    {
      "type": "Feature",
      "properties": {
        "norad_id": 30836,
        "name": "FENGYUN 1C DEB",
        "group": "fengyun-1c-debris",
        "lat": 35.31138187056891,
        "lon": 27.349259391230618,
        "alt_km": 868.5907950573619,
        "timestamp": "2025-12-27T07:26:25.500783+00:00",
        "meta_object_name": "FENGYUN 1C DEB",
        "meta_object_id": "1999-025AVW",
        "meta_epoch": "2025-12-21T01:36:21.545856",
        "meta_mean_motion": 14.11944491,
        "meta_eccentricity": 0.00260217,
        "meta_inclination": 98.7439,
        "meta_ra_of_asc_node": 27.5216,
        "meta_arg_of_pericenter": 220.4586,
        "meta_mean_anomaly": 139.4651,
        "meta_ephemeris_type": 0,
        "meta_classification_type": "U",
        "meta_norad_cat_id": 30836,
        "meta_element_set_no": 999,
        "meta_rev_at_epoch": 62121,
        "meta_bstar": 0.00026112112,
        "meta_mean_motion_dot": 4.36e-06,
        "meta_mean_motion_ddot": 0,
        "tle_line1": "1 30836U 99025AVW 25355.06691604  .00000436  00000+0  26112-3 0  9994",
        "tle_line2": "2 30836  98.7439  27.5216 0026021 220.4586 139.4651 14.11944491621212"
      },
      "geometry": {
        "type": "Point",
        "coordinates": [
          27.349259391230618,
          35.31138187056891
        ]
      }
    },
    {
      "type": "Feature",
      "properties": {
        "norad_id": 30837,
        "name": "FENGYUN 1C DEB",
        "group": "fengyun-1c-debris",
        "lat": -34.571166553074384,
        "lon": 161.09448213439424,
        "alt_km": 862.8058225700142,
        "timestamp": "2025-12-27T07:26:25.500794+00:00",
        "meta_object_name": "FENGYUN 1C DEB",
        "meta_object_id": "1999-025AVX",
        "meta_epoch": "2025-12-26T22:04:57.961056",
        "meta_mean_motion": 14.14539418,
        "meta_eccentricity": 0.00333537,
        "meta_inclination": 98.68,
        "meta_ra_of_asc_node": 346.7582,
        "meta_arg_of_pericenter": 93.9164,
        "meta_mean_anomaly": 296.2873,
        "meta_ephemeris_type": 0,
        "meta_classification_type": "U",
        "meta_norad_cat_id": 30837,
        "meta_element_set_no": 999,
        "meta_rev_at_epoch": 97019,
        "meta_bstar": 0.00036312077,
        "meta_mean_motion_dot": 6.58e-06,
        "meta_mean_motion_ddot": 0,
        "tle_line1": "1 30837U 99025AVX 25360.92011529  .00000658  00000+0  36312-3 0  9997",
        "tle_line2": "2 30837  98.6800 346.7582 0033353  93.9164 296.2873 14.14539418970191"
      },
      "geometry": {
        "type": "Point",
        "coordinates": [
          161.09448213439424,
          -34.571166553074384
        ]
      }
    }
  ]
}